     2.100          NAVIGATION                              RINEX VERSION / TYPE
fic2rin                                 02/20/2017 00:06:13 PGM / RUN BY / DATE
                                                            END OF HEADER
32 17  2 19 15 59 44.0 -.325711909682D-03 -.136424205266D-10  .000000000000D+00
     .200000000000D+01  .167187500000D+02  .467340895196D-08 -.220253728911D+01
     .940635800362D-06  .774484477006D-03  .892020761967D-05  .515369599915D+04
     .575840000000D+05  .558793544769D-07  .132091051178D+01 -.540167093277D-07
     .958094497190D+00  .205468750000D+03 -.278111603226D+01 -.801997692137D-08
    -.241081470582D-09  .100000000000D+01  .193700000000D+04  .000000000000D+00
     .240000000000D+01  .000000000000D+00  .465661287308D-09  .200000000000D+01
     .522960000000D+05  .400000000000D+01
27 17  2 19 15 59 44.0  .212032813579D-03  .591171556152D-11  .000000000000D+00
     .100000000000D+01 -.601562500000D+02  .408517016373D-08 -.298728565648D+01
    -.301189720631D-05  .438887497876D-02  .752322375774D-05  .515366258621D+04
     .575840000000D+05  .745058059692D-08 -.181863402577D+01 -.130385160446D-07
     .973761918258D+00  .242500000000D+03  .281032034341D+00 -.791568686299D-08
     .453590322429D-10  .100000000000D+01  .193700000000D+04  .000000000000D+00
     .240000000000D+01  .000000000000D+00  .186264514923D-08  .100000000000D+01
     .523860000000D+05  .400000000000D+01
 6 17  2 19 15 59 44.0  .314641278237D-03  .500222085975D-11  .000000000000D+00
     .300000000000D+01 -.313437500000D+02  .428232123301D-08  .137579368731D+01
    -.150315463543D-05  .682990648784D-03  .822730362415D-05  .515362472343D+04
     .575840000000D+05 -.931322574615D-08 -.769058993754D+00 -.689178705215D-07
     .966469499848D+00  .222062500000D+03 -.134984048045D+01 -.793461622290D-08
     .291440711104D-09  .100000000000D+01  .193700000000D+04  .000000000000D+00
     .240000000000D+01  .000000000000D+00  .419095158577D-08  .300000000000D+01
     .574860000000D+05  .400000000000D+01
 1 17  2 19 15 59 44.0  .496129505336D-04  .909494701773D-12  .000000000000D+00
     .000000000000D+00 -.313125000000D+02  .440339770490D-08  .107106218259D+01
    -.170059502125D-05  .623057060875D-02  .833533704281D-05  .515369478035D+04
     .575840000000D+05  .372529029846D-07 -.760672134145D+00  .707805156708D-07
     .966685214434D+00  .221906250000D+03  .539717529813D+00 -.803712049261D-08
     .222152110670D-09  .100000000000D+01  .193700000000D+04  .000000000000D+00
     .240000000000D+01  .000000000000D+00  .512227416039D-08  .000000000000D+00
     .575160000000D+05  .400000000000D+01
 1 17  2 19 17 59 44.0  .496190041304D-04  .909494701773D-12  .000000000000D+00
     .100000000000D+01 -.278750000000D+02  .432053711057D-08  .212126574858D+01
    -.139884650707D-05  .623089505825D-02  .844523310661D-05  .515369432640D+04
     .647840000000D+05 -.124797224998D-06 -.760730393394D+00  .186264514923D-07
     .966687498049D+00  .218312500000D+03  .539680986119D+00 -.794140221985D-08
     .333942481473D-09  .100000000000D+01  .193700000000D+04  .000000000000D+00
     .240000000000D+01  .000000000000D+00  .512227416039D-08  .100000000000D+01
     .576060000000D+05  .400000000000D+01
 6 17  2 19 17 59 44.0  .314677134156D-03  .500222085975D-11  .000000000000D+00
     .400000000000D+01 -.370937500000D+02  .426374903083D-08  .242726102434D+01
    -.184588134289D-05  .683276564814D-03  .843964517117D-05  .515362301636D+04
     .647840000000D+05  .298023223877D-07 -.769115762290D+00 -.186264514923D-07
     .966471738113D+00  .219031250000D+03 -.135109833837D+01 -.788604277105D-08
     .278940190407D-09  .100000000000D+01  .193700000000D+04  .000000000000D+00
     .240000000000D+01  .000000000000D+00  .419095158577D-08  .400000000000D+01
     .576060000000D+05  .400000000000D+01
27 17  2 19 17 59 44.0  .212075654417D-03  .591171556152D-11  .000000000000D+00
     .200000000000D+01 -.582812500000D+02  .403409660774D-08 -.193706265562D+01
    -.302121043205D-05  .438868708443D-02  .753626227379D-05  .515366304016D+04
     .647840000000D+05 -.558793544769D-07 -.181869065826D+01 -.167638063431D-07
     .973762212305D+00  .241593750000D+03  .280993163145D+00 -.788497129785D-08
     .357157734196D-12  .100000000000D+01  .193700000000D+04  .000000000000D+00
     .240000000000D+01  .000000000000D+00  .186264514923D-08  .200000000000D+01
     .576060000000D+05  .400000000000D+01
32 17  2 19 17 59 44.0 -.325810164213D-03 -.136424205266D-10  .000000000000D+00
     .300000000000D+01  .152500000000D+02  .471698219553D-08 -.115328503534D+01
     .819563865662D-06  .774873537011D-03  .867061316967D-05  .515369459152D+04
     .647840000000D+05  .204890966415D-07  .132085246905D+01  .260770320892D-07
     .958093079622D+00  .212406250000D+03 -.278019871240D+01 -.800783355841D-08
    -.174650132022D-09  .100000000000D+01  .193700000000D+04  .000000000000D+00
     .240000000000D+01  .000000000000D+00  .465661287308D-09  .300000000000D+01
     .576060000000D+05  .400000000000D+01
 2 17  2 19 18  0  0.0  .472845509648D-03 -.693489710102D-11  .000000000000D+00
     .500000000000D+02 -.403437500000D+02  .458840541122D-08  .251869538216D+01
    -.211410224438D-05  .166628703009D-01  .830367207527D-05  .515373915100D+04
     .648000000000D+05  .126659870148D-06 -.812026934124D+00 -.251457095146D-06
     .945545716106D+00  .208000000000D+03 -.201873365764D+01 -.782211153663D-08
     .269654089318D-09  .100000000000D+01  .193700000000D+04  .000000000000D+00
     .240000000000D+01  .000000000000D+00 -.204890966415D-07  .500000000000D+02
     .576060000000D+05  .400000000000D+01
 3 17  2 19 18  0  0.0 -.107500702143D-03 -.113686837722D-12  .000000000000D+00
     .800000000000D+02 -.102500000000D+02  .477091301339D-08  .117401518139D+01
    -.776723027229D-06  .487050157972D-03  .726804137230D-05  .515379274368D+04
     .648000000000D+05  .335276126862D-07  .281086899620D+00  .167638063431D-07
     .960006665708D+00  .238500000000D+03  .422352173692D+00 -.810676625078D-08
     .107861635727D-09  .100000000000D+01  .193700000000D+04  .000000000000D+00
     .340000000000D+01  .000000000000D+00  .186264514923D-08  .800000000000D+02
     .576060000000D+05  .400000000000D+01
 5 17  2 19 18  0  0.0 -.597736798227D-04  .204636307899D-11  .000000000000D+00
     .110000000000D+02 -.656250000000D+01  .502949521295D-08 -.122047574505D+01
    -.324100255966D-06  .490808230825D-02  .686384737492D-05  .515368545723D+04
     .648000000000D+05  .745058059692D-07  .265567755540D+00 -.149011611938D-07
     .946995921427D+00  .234531250000D+03  .557281286237D+00 -.826462996930D-08
     .185364864048D-09  .100000000000D+01  .193700000000D+04  .000000000000D+00
     .240000000000D+01  .000000000000D+00 -.107102096081D-07  .110000000000D+02
     .576060000000D+05  .400000000000D+01
 7 17  2 19 18  0  0.0  .380987767130D-03 -.386535248253D-11  .000000000000D+00
     .780000000000D+02  .668437500000D+02  .455947563475D-08  .150958840636D+01
     .360235571861D-05  .101401701104D-01  .811368227005D-05  .515361025047D+04
     .648000000000D+05 -.782310962677D-07  .239700218771D+01  .163912773132D-06
     .963341144625D+00  .227062500000D+03 -.261437628980D+01 -.820784188956D-08
    -.126433837905D-09  .100000000000D+01  .193700000000D+04  .000000000000D+00
     .240000000000D+01  .000000000000D+00 -.111758708954D-07  .780000000000D+02
     .576060000000D+05  .400000000000D+01
 8 17  2 19 18  0  0.0 -.501293689013D-04 -.136424205266D-11  .000000000000D+00
     .710000000000D+02 -.588437500000D+02  .429375028051D-08 -.136596773178D+01
    -.300630927086D-05  .251834187657D-02  .737607479095D-05  .515359271431D+04
     .648000000000D+05 -.745058059692D-08 -.182349937824D+01  .745058059692D-07
     .965650847965D+00  .242500000000D+03 -.854095011640D+00 -.807283626603D-08
     .357157734196D-11  .100000000000D+01  .193700000000D+04  .000000000000D+00
     .340000000000D+01  .000000000000D+00  .465661287308D-08  .710000000000D+02
     .576060000000D+05  .400000000000D+01
 9 17  2 19 18  0  0.0  .306903850287D-03  .761701812735D-11  .000000000000D+00
     .770000000000D+02  .135312500000D+02  .487877464912D-08 -.184564182248D+01
     .754371285439D-06  .910977367312D-03  .898540019989D-05  .515368630028D+04
     .648000000000D+05  .000000000000D+00  .131813810062D+01 -.298023223877D-07
     .953573048968D+00  .204937500000D+03  .176173293763D+01 -.810319467344D-08
    -.197865384745D-09  .100000000000D+01  .193700000000D+04  .000000000000D+00
     .240000000000D+01  .000000000000D+00  .139698386192D-08  .770000000000D+02
     .576060000000D+05  .400000000000D+01
10 17  2 19 18  0  0.0 -.103861559182D-03  .420641299570D-11  .000000000000D+00
     .740000000000D+02 -.115625000000D+02  .476412701644D-08  .207072967363D-01
    -.575557351112D-06  .224216596689D-02  .709295272827D-05  .515367096710D+04
     .648000000000D+05 -.149011611938D-07  .277306417943D+00  .372529029846D-08
     .960194040644D+00  .242093750000D+03 -.288205415984D+01 -.813033866124D-08
     .907180644858D-10  .100000000000D+01  .193700000000D+04  .000000000000D+00
     .240000000000D+01  .000000000000D+00  .232830643654D-08  .740000000000D+02
     .576060000000D+05  .400000000000D+01
11 17  2 19 18  0  0.0 -.670776702464D-03 -.193267624127D-11  .000000000000D+00
     .660000000000D+02 -.483437500000D+02  .578916971358D-08  .152531022311D+01
    -.271014869213D-05  .166165981209D-01  .806339085102D-05  .515370156479D+04
     .648000000000D+05  .633299350739D-07 -.115653691205D+01 -.430271029472D-06
     .899611130015D+00  .191343750000D+03  .162049686340D+01 -.870821987517D-08
     .270725562521D-09  .100000000000D+01  .193700000000D+04  .000000000000D+00
     .240000000000D+01  .000000000000D+00 -.121071934700D-07  .660000000000D+02
     .576060000000D+05  .400000000000D+01
